XRISM                   
1 57800U 23137A   23349.50092322  .00003753  00000+0  29653-3 0  9995
2 57800  31.0032 106.0338 0009991 178.4836 181.5831 14.98896985 14938
